IRIDIUM 126             
1 42809U 17039G   25353.63424720  .00000104  00000+0  29986-4 0  9991
2 42809  86.3964  68.7038 0001971 100.8777 259.2641 14.34218080444216
IRIDIUM 124             
1 42810U 17039H   25353.41618642  .00000294  00000+0  81542-4 0  9993
2 42810  86.4489   5.5156 0002373  96.4112 263.7359 14.43281817449186
IRIDIUM 128             
1 42811U 17039J   25353.83429144  .00000195  00000+0  62566-4 0  9992
2 42811  86.3971 100.1548 0002393  96.5803 263.5665 14.34217846444273
IRIDIUM 121             
1 42812U 17039K   25353.51373771  .00000216  00000+0  70187-4 0  9994
2 42812  86.3964  68.7805 0002227  94.6275 265.5176 14.34218892444078
IRIDIUM 133             
1 42955U 17061A   25353.23809196  .00000204  00000+0  65877-4 0  9998
2 42955  86.3972 100.5174 0002132  97.9214 262.2224 14.34220413428985
IRIDIUM 100             
1 42956U 17061B   25353.30151243  .00000211  00000+0  68199-4 0  9998
2 42956  86.3968 100.4135 0002073  98.1930 261.9501 14.34217789428996
IRIDIUM 122             
1 42957U 17061C   25353.82795029  .00000233  00000+0  76126-4 0  9995
2 42957  86.3969 100.1933 0002009  99.2269 260.9154 14.34217248429070
IRIDIUM 129             
1 42958U 17061D   25353.71378082  .00000095  00000+0  26697-4 0  9994
2 42958  86.3972 100.3062 0001750  90.9083 269.2313 14.34218095429074
